[{"OBJECT_NAME":"GEOSCAN 4 (RS92S4)","OBJECT_ID":"2025-155S","EPOCH":"2026-03-09T21:50:07.724832","MEAN_MOTION":15.30369837,"ECCENTRICITY":0.00070968,"INCLINATION":97.4465,"RA_OF_ASC_NODE":37.7626,"ARG_OF_PERICENTER":154.7045,"MEAN_ANOMALY":205.4544,"EPHEMERIS_TYPE":0,"CLASSIFICATION_TYPE":"U","NORAD_CAT_ID":64892,"ELEMENT_SET_NO":999,"REV_AT_EPOCH":6562,"BSTAR":0.00068609503,"MEAN_MOTION_DOT":0.00020121,"MEAN_MOTION_DDOT":0},{"OBJECT_NAME":"STARLINK-35690","OBJECT_ID":"2025-257D","EPOCH":"2026-03-09T16:08:37.824000","MEAN_MOTION":15.30193819,"ECCENTRICITY":0.00010438,"INCLINATION":53.1601,"RA_OF_ASC_NODE":216.9097,"ARG_OF_PERICENTER":74.2963,"MEAN_ANOMALY":285.8153,"EPHEMERIS_TYPE":0,"CLASSIFICATION_TYPE":"U","NORAD_CAT_ID":66383,"ELEMENT_SET_NO":999,"REV_AT_EPOCH":1973,"BSTAR":0.0009368491,"MEAN_MOTION_DOT":0.00027485,"MEAN_MOTION_DDOT":0}]
